NORAD_CAT_ID,OBJECT_NAME,OBJECT_TYPE,EPOCH,MEAN_MOTION,ECCENTRICITY,INCLINATION,RA_OF_ASC_NODE,ARG_OF_PERICENTER,MEAN_ANOMALY,BSTAR,MEAN_MOTION_DOT,MEAN_MOTION_DDOT,TLE_LINE0,TLE_LINE1,TLE_LINE2,SEMIMAJOR_AXIS,PERIOD,APOGEE,PERIGEE,DECAYED
53423.0,STARLINK-4539,PAYLOAD,2023-10-13 11:11:53,15.08842165,0.0001509,53.2166,96.6284,85.1237,274.9928,0.00021562,3.145e-05,0.0,0 STARLINK-4539,1 53423U 22097AM  23286.46659527  .00003145  00000-0  21562-3 0  9994,2 53423  53.2166  96.6284 0001509  85.1237 274.9928 15.08842165 65583,6917.874,95.437,540.783,538.695,0.0
53423.0,STARLINK-4539,PAYLOAD,2023-10-13 20:44:12,15.08853771,0.0001239,53.216,94.8434,81.2145,278.8987,0.00026877,3.994e-05,0.0,0 STARLINK-4539,1 53423U 22097AM  23286.86402826  .00003994  00000-0  26877-3 0  9992,2 53423  53.2160  94.8434 0001239  81.2145 278.8987 15.08853771 65649,6917.838,95.437,540.56,538.846,0.0
53423.0,STARLINK-4539,PAYLOAD,2023-10-14 11:02:39,15.08859869,0.0001401,53.2156,92.1674,84.7433,275.3719,0.0003384,5.105e-05,0.0,0 STARLINK-4539,1 53423U 22097AM  23287.46018170  .00005105  00000-0  33840-3 0  9998,2 53423  53.2156  92.1674 0001401  84.7433 275.3719 15.08859869 66190,6917.82,95.436,540.654,538.715,0.0
53423.0,STARLINK-4539,PAYLOAD,2023-10-14 15:48:48,15.08860214,0.0001415,53.2158,91.2748,87.3648,272.7506,0.0003167,4.759e-05,0.0,0 STARLINK-4539,1 53423U 22097AM  23287.65889941  .00004759  00000-0  31670-3 0  9994,2 53423  53.2158  91.2748 0001415  87.3648 272.7506 15.08860214 66221,6917.819,95.436,540.662,538.705,0.0
53423.0,STARLINK-4539,PAYLOAD,2023-10-15 04:31:53,15.08851172,0.0001557,53.2165,88.8949,90.7607,269.3563,0.00010175,1.332e-05,0.0,0 STARLINK-4539,1 53423U 22097AM  23288.18881920  .00001332  00000-0  10175-3 0  9993,2 53423  53.2165  88.8949 0001557  90.7607 269.3563 15.08851172 65849,6917.846,95.437,540.788,538.634,0.0
53423.0,STARLINK-4539,PAYLOAD,2023-10-15 10:53:27,15.08840305,0.0002153,53.216,87.7064,91.893,268.2309,-5.0986e-05,-1.1e-05,0.0,0 STARLINK-4539,1 53423U 22097AM  23288.45378560 -.00001100  00000-0 -50986-4 0  9994,2 53423  53.2160  87.7064 0002153  91.8930 268.2309 15.08840305 65880,6917.879,95.438,541.234,538.255,0.0
53423.0,STARLINK-4539,PAYLOAD,2023-10-15 17:14:59,15.08826955,0.0001411,53.216,86.517,98.1652,261.95,-0.00034585,-5.786e-05,0.0,0 STARLINK-4539,1 53423U 22097AM  23288.71874770 -.00005786  00000-0 -34585-3 0  9997,2 53423  53.2160  86.5170 0001411  98.1652 261.9500 15.08826955 65925,6917.92,95.438,540.761,538.809,0.0
53423.0,STARLINK-4539,PAYLOAD,2023-10-16 13:55:01,15.08832259,0.0001484,53.2165,82.6506,101.8359,258.2799,0.00055682,8.583e-05,0.0,0 STARLINK-4539,1 53423U 22097AM  23289.57987660  .00008583  00000-0  55682-3 0  9992,2 53423  53.2165  82.6506 0001484 101.8359 258.2799 15.08832259 66515,6917.904,95.438,540.796,538.742,0.0
53423.0,STARLINK-4539,PAYLOAD,2023-10-16 15:30:24,15.08835874,0.0001443,53.2167,82.3532,101.9241,258.1913,0.00073217,0.00011382,0.0,0 STARLINK-4539,1 53423U 22097AM  23289.64611696  .00011382  00000-0  73217-3 0  9998,2 53423  53.2167  82.3532 0001443 101.9241 258.1913 15.08835874 66062,6917.893,95.438,540.756,538.76,0.0
53423.0,STARLINK-4539,PAYLOAD,2023-10-17 10:35:02,15.08845041,0.0001456,53.2173,78.7847,100.3096,259.806,0.00053484,8.235e-05,0.0,0 STARLINK-4539,1 53423U 22097AM  23290.44099812  .00008235  00000-0  53484-3 0  9995,2 53423  53.2173  78.7847 0001456 100.3096 259.8060 15.08845041 66183,6917.865,95.437,540.737,538.723,0.0
53423.0,STARLINK-4539,PAYLOAD,2023-10-18 02:28:53,15.08844179,0.0001302,53.2178,75.8127,86.5852,273.5289,0.00026983,4.01e-05,0.0,0 STARLINK-4539,1 53423U 22097AM  23291.10339812  .00004010  00000-0  26983-3 0  9997,2 53423  53.2178  75.8127 0001302  86.5852 273.5289 15.08844179 66741,6917.868,95.437,540.633,538.832,0.0
53423.0,STARLINK-4539,PAYLOAD,2023-10-18 12:01:12,15.08838215,0.0001404,53.2177,74.0285,88.8419,271.2734,6.8307e-05,7.99e-06,0.0,0 STARLINK-4539,1 53423U 22097AM  23291.50084035  .00000799  00000-0  68307-4 0  9992,2 53423  53.2177  74.0285 0001404  88.8419 271.2734 15.08838215 66343,6917.886,95.438,540.722,538.78,0.0
53423.0,STARLINK-4539,PAYLOAD,2023-10-18 16:47:21,15.08845275,0.0001307,53.2165,73.1384,83.8921,276.222,0.00014734,2.058e-05,0.0,0 STARLINK-4539,1 53423U 22097AM  23291.69955736  .00002058  00000-0  14734-3 0  9991,2 53423  53.2165  73.1384 0001307  83.8921 276.2220 15.08845275 66838,6917.864,95.437,540.633,538.825,0.0
53423.0,STARLINK-4539,PAYLOAD,2023-10-19 02:19:40,15.0885085,0.0001316,53.2177,71.3532,88.0863,272.0279,0.00029937,4.481e-05,0.0,0 STARLINK-4539,1 53423U 22097AM  23292.09699540  .00004481  00000-0  29937-3 0  9997,2 53423  53.2177  71.3532 0001316  88.0863 272.0279 15.08850850 66437,6917.847,95.437,540.623,538.802,0.0
53423.0,STARLINK-4539,PAYLOAD,2023-10-19 08:41:12,15.08845852,0.0001332,53.2175,70.1631,85.3095,274.805,0.00014723,2.056e-05,0.0,0 STARLINK-4539,1 53423U 22097AM  23292.36195594  .00002056  00000-0  14723-3 0  9990,2 53423  53.2175  70.1631 0001332  85.3095 274.8050 15.08845852 66935,6917.863,95.437,540.649,538.806,0.0
53423.0,STARLINK-4539,PAYLOAD,2023-10-20 18:04:19,15.08837057,0.0001319,53.2175,63.9192,87.8108,272.3036,1.4942e-05,-5e-07,0.0,0 STARLINK-4539,1 53423U 22097AM  23293.75300094 -.00000050  00000-0  14942-4 0  9994,2 53423  53.2175  63.9192 0001319  87.8108 272.3036 15.08837057 66681,6917.889,95.438,540.667,538.842,0.0
53423.0,STARLINK-4539,PAYLOAD,2023-10-21 14:44:20,15.08839779,0.0001525,53.2165,60.0523,100.2705,259.8459,0.00013271,1.825e-05,0.0,0 STARLINK-4539,1 53423U 22097AM  23294.61412278  .00001825  00000-0  13271-3 0  9991,2 53423  53.2165  60.0523 0001525 100.2705 259.8459 15.08839779 67276,6917.881,95.438,540.801,538.691,0.0
53423.0,STARLINK-4539,PAYLOAD,2023-10-21 17:55:06,15.08851115,0.0001638,53.2177,59.4556,95.1026,265.0153,0.00031359,4.708e-05,0.0,0 STARLINK-4539,1 53423U 22097AM  23294.74659827  .00004708  00000-0  31359-3 0  9998,2 53423  53.2177  59.4556 0001638  95.1026 265.0153 15.08851115 66839,6917.846,95.437,540.845,538.578,0.0
53423.0,STARLINK-4539,PAYLOAD,2023-10-22 01:52:02,15.08833886,0.000231,53.2165,57.9709,90.218,269.9077,6.7112e-05,7.8e-06,0.0,0 STARLINK-4539,1 53423U 22097AM  23295.07780908  .00000780  00000-0  67112-4 0  9993,2 53423  53.2165  57.9709 0002310  90.2180 269.9077 15.08833886 66882,6917.899,95.438,541.362,538.166,0.0
53423.0,STARLINK-4539,PAYLOAD,2023-10-22 14:35:07,15.08833014,0.0001598,53.2168,55.5928,90.8769,269.2406,3.9101e-05,3.34e-06,0.0,0 STARLINK-4539,1 53423U 22097AM  23295.60772969  .00000334  00000-0  39101-4 0  9992,2 53423  53.2168  55.5928 0001598  90.8769 269.2406 15.08833014 67421,6917.902,95.438,540.872,538.661,0.0
53423.0,STARLINK-4539,PAYLOAD,2023-10-23 01:42:49,15.08847006,0.0001634,53.2177,53.5096,94.1364,265.9815,0.00022894,3.358e-05,0.0,0 STARLINK-4539,1 53423U 22097AM  23296.07140342  .00003358  00000-0  22894-3 0  9997,2 53423  53.2177  53.5096 0001634  94.1364 265.9815 15.08847006 67034,6917.859,95.437,540.854,538.594,0.0
53423.0,STARLINK-4539,PAYLOAD,2023-10-23 14:25:53,15.08855805,0.0001521,53.2176,51.1314,96.5213,263.5952,0.00024114,3.553e-05,0.0,0 STARLINK-4539,1 53423U 22097AM  23296.60131703  .00003553  00000-0  24114-3 0  9991,2 53423  53.2176  51.1314 0001521  96.5213 263.5952 15.08855805 67575,6917.832,95.437,540.749,538.645,0.0
53423.0,STARLINK-4539,PAYLOAD,2023-10-24 11:05:55,15.08834678,0.0001541,53.2175,47.2656,93.5009,266.6159,9.7623e-05,1.266e-05,0.0,0 STARLINK-4539,1 53423U 22097AM  23297.46244851  .00001266  00000-0  97623-4 0  9990,2 53423  53.2175  47.2656 0001541  93.5009 266.6159 15.08834678 67243,6917.897,95.438,540.828,538.696,0.0
53423.0,STARLINK-4539,PAYLOAD,2023-10-24 14:16:41,15.08834464,0.0001559,53.219,46.6721,84.8013,275.3157,7.3188e-05,8.77e-06,0.0,0 STARLINK-4539,1 53423U 22097AM  23297.59492944  .00000877  00000-0  73188-4 0  9999,2 53423  53.2190  46.6721 0001559  84.8013 275.3157 15.08834464 67724,6917.897,95.438,540.841,538.684,0.0
53423.0,STARLINK-4539,PAYLOAD,2023-10-25 14:07:28,15.08838789,0.0001513,53.2186,42.2129,89.587,270.5296,0.00013147,1.805e-05,0.0,0 STARLINK-4539,1 53423U 22097AM  23298.58852850  .00001805  00000-0  13147-3 0  9995,2 53423  53.2186  42.2129 0001513  89.5870 270.5296 15.08838789 67417,6917.884,95.438,540.796,538.702,0.0
53423.0,STARLINK-4539,PAYLOAD,2023-10-26 13:58:15,15.08848426,0.0001565,53.2193,37.7522,89.3368,270.7803,0.00030596,4.586e-05,0.0,0 STARLINK-4539,1 53423U 22097AM  23299.58212569  .00004586  00000-0  30596-3 0  9999,2 53423  53.2193  37.7522 0001565  89.3368 270.7803 15.08848426 68021,6917.855,95.437,540.802,538.637,0.0
53423.0,STARLINK-4539,PAYLOAD,2023-10-26 23:30:34,15.0884814,0.0001557,53.2193,35.9685,87.4374,272.6797,0.00020959,3.05e-05,0.0,0 STARLINK-4539,1 53423U 22097AM  23299.97956490  .00003050  00000-0  20959-3 0  9997,2 53423  53.2193  35.9685 0001557  87.4374 272.6797 15.08848140 67629,6917.856,95.437,540.798,538.643,0.0
53423.0,STARLINK-4539,PAYLOAD,2023-10-27 10:38:16,15.08850629,0.0001655,53.2193,33.8871,89.5781,270.5401,0.00016174,2.288e-05,0.0,0 STARLINK-4539,1 53423U 22097AM  23300.44324187  .00002288  00000-0  16174-3 0  9990,2 53423  53.2193  33.8871 0001655  89.5781 270.5401 15.08850629 68150,6917.848,95.437,540.858,538.568,0.0
53423.0,STARLINK-4539,PAYLOAD,2023-10-27 15:24:25,15.08857138,0.0001955,53.22,32.9947,88.0494,272.0722,0.00026656,3.959e-05,0.0,0 STARLINK-4539,1 53423U 22097AM  23300.64195913  .00003959  00000-0  26656-3 0  9997,2 53423  53.2200  32.9947 0001955  88.0494 272.0722 15.08857138 68189,6917.828,95.436,541.045,538.341,0.0
53423.0,STARLINK-4539,PAYLOAD,2023-10-27 23:21:21,15.0884414,0.0001786,53.2193,31.508,76.158,283.9611,2.8694e-05,1.69e-06,0.0,0 STARLINK-4539,1 53423U 22097AM  23300.97316230  .00000169  00000-0  28694-4 0  9995,2 53423  53.2193  31.5080 0001786  76.1580 283.9611 15.08844140 67770,6917.868,95.437,540.968,538.497,0.0
